{
  "type": "FeatureCollection",
  "features": [
    {
      "type": "Feature",
      "id": "lands-end",
      "properties": {
        "id": "lands-end",
        "name": "Lands End",
        "zone": "Polo Field",
        "accent": "#ffc21c"
      },
      "geometry": {
        "type": "Point",
        "coordinates": [
          -122.4943,
          37.7679
        ]
      }
    },
    {
      "type": "Feature",
      "id": "twin-peaks",
      "properties": {
        "id": "twin-peaks",
        "name": "Twin Peaks",
        "zone": "Hellman Hollow",
        "accent": "#ff4964"
      },
      "geometry": {
        "type": "Point",
        "coordinates": [
          -122.48184,
          37.76987
        ]
      }
    },
    {
      "type": "Feature",
      "id": "sutro",
      "properties": {
        "id": "sutro",
        "name": "Sutro",
        "zone": "Lindley Meadow",
        "accent": "#087d91"
      },
      "geometry": {
        "type": "Point",
        "coordinates": [
          -122.4923,
          37.7703
        ]
      }
    },
    {
      "type": "Feature",
      "id": "panhandle",
      "properties": {
        "id": "panhandle",
        "name": "Panhandle",
        "zone": "Hellman Hollow",
        "accent": "#ef3f58"
      },
      "geometry": {
        "type": "Point",
        "coordinates": [
          -122.48955,
          37.76831
        ]
      }
    },
    {
      "type": "Feature",
      "id": "soma",
      "properties": {
        "id": "soma",
        "name": "SOMA",
        "zone": "Marx Meadow",
        "accent": "#5cd3c8"
      },
      "geometry": {
        "type": "Point",
        "coordinates": [
          -122.4851,
          37.77117
        ]
      }
    },
    {
      "type": "Feature",
      "id": "dolores",
      "properties": {
        "id": "dolores",
        "name": "Dolores\u2019",
        "zone": "Polo Field",
        "accent": "#d46cd6"
      },
      "geometry": {
        "type": "Point",
        "coordinates": [
          -122.4913,
          37.7688
        ]
      }
    },
    {
      "type": "Feature",
      "id": "duboce-triangle",
      "properties": {
        "id": "duboce-triangle",
        "name": "Duboce Triangle",
        "zone": "McLaren Pass",
        "accent": "#173d67"
      },
      "geometry": {
        "type": "Point",
        "coordinates": [
          -122.4874,
          37.77
        ]
      }
    }
  ]
}
