{
  "type": "FeatureCollection",
  "features": [
    {
      "type": "Feature",
      "properties": {
        "id": "lindley-meadow",
        "name": "Lindley Meadow",
        "fill": "#087d91",
        "ink": "#f4fbfc"
      },
      "geometry": {
        "type": "Polygon",
        "coordinates": [
          [
            [
              -122.49293,
              37.77031
            ],
            [
              -122.49309,
              37.77017
            ],
            [
              -122.49323,
              37.77001
            ],
            [
              -122.49322,
              37.76992
            ],
            [
              -122.4931,
              37.76989
            ],
            [
              -122.49276,
              37.76991
            ],
            [
              -122.49245,
              37.76994
            ],
            [
              -122.49184,
              37.77
            ],
            [
              -122.49148,
              37.7702
            ],
            [
              -122.49125,
              37.77036
            ],
            [
              -122.49093,
              37.77042
            ],
            [
              -122.49036,
              37.77039
            ],
            [
              -122.49019,
              37.77035
            ],
            [
              -122.48999,
              37.7703
            ],
            [
              -122.48978,
              37.7703
            ],
            [
              -122.48954,
              37.77036
            ],
            [
              -122.48925,
              37.77032
            ],
            [
              -122.4887,
              37.77031
            ],
            [
              -122.48833,
              37.77035
            ],
            [
              -122.48797,
              37.77045
            ],
            [
              -122.48766,
              37.77057
            ],
            [
              -122.48771,
              37.77066
            ],
            [
              -122.4878,
              37.77069
            ],
            [
              -122.48799,
              37.77067
            ],
            [
              -122.48831,
              37.77064
            ],
            [
              -122.48877,
              37.77062
            ],
            [
              -122.48912,
              37.77067
            ],
            [
              -122.48964,
              37.77073
            ],
            [
              -122.49024,
              37.77082
            ],
            [
              -122.49055,
              37.77086
            ],
            [
              -122.49088,
              37.77084
            ],
            [
              -122.49137,
              37.77079
            ],
            [
              -122.49169,
              37.77073
            ],
            [
              -122.49191,
              37.77068
            ],
            [
              -122.49218,
              37.77062
            ],
            [
              -122.49259,
              37.77051
            ],
            [
              -122.49278,
              37.77045
            ],
            [
              -122.49293,
              37.77031
            ]
          ]
        ]
      }
    },
    {
      "type": "Feature",
      "properties": {
        "id": "marx-meadow",
        "name": "Marx Meadow",
        "fill": "#1d2420",
        "ink": "#f2f7ee"
      },
      "geometry": {
        "type": "Polygon",
        "coordinates": [
          [
            [
              -122.48567,
              37.77125
            ],
            [
              -122.48601,
              37.77112
            ],
            [
              -122.48623,
              37.77092
            ],
            [
              -122.48624,
              37.77077
            ],
            [
              -122.48585,
              37.77057
            ],
            [
              -122.48574,
              37.77072
            ],
            [
              -122.48564,
              37.7709
            ],
            [
              -122.48539,
              37.77101
            ],
            [
              -122.48477,
              37.77117
            ],
            [
              -122.48429,
              37.77135
            ],
            [
              -122.48396,
              37.77149
            ],
            [
              -122.48358,
              37.77149
            ],
            [
              -122.48346,
              37.77158
            ],
            [
              -122.48366,
              37.77163
            ],
            [
              -122.48406,
              37.77165
            ],
            [
              -122.4845,
              37.77163
            ],
            [
              -122.48479,
              37.7716
            ],
            [
              -122.48536,
              37.77138
            ],
            [
              -122.48567,
              37.77125
            ]
          ]
        ]
      }
    },
    {
      "type": "Feature",
      "properties": {
        "id": "hellman-hollow",
        "name": "Hellman Hollow",
        "fill": "#f4626e",
        "ink": "#3b0c14"
      },
      "geometry": {
        "type": "Polygon",
        "coordinates": [
          [
            [
              -122.48933,
              37.76851
            ],
            [
              -122.48957,
              37.7684
            ],
            [
              -122.48962,
              37.76825
            ],
            [
              -122.48945,
              37.76818
            ],
            [
              -122.48914,
              37.76817
            ],
            [
              -122.48906,
              37.76818
            ],
            [
              -122.48866,
              37.76827
            ],
            [
              -122.48826,
              37.76837
            ],
            [
              -122.48788,
              37.76846
            ],
            [
              -122.48741,
              37.76855
            ],
            [
              -122.4872,
              37.76859
            ],
            [
              -122.48702,
              37.76864
            ],
            [
              -122.48656,
              37.76875
            ],
            [
              -122.48639,
              37.7688
            ],
            [
              -122.48612,
              37.76883
            ],
            [
              -122.48582,
              37.76884
            ],
            [
              -122.48559,
              37.76886
            ],
            [
              -122.48537,
              37.76889
            ],
            [
              -122.48499,
              37.76889
            ],
            [
              -122.48479,
              37.7689
            ],
            [
              -122.48465,
              37.76893
            ],
            [
              -122.48448,
              37.76897
            ],
            [
              -122.48433,
              37.769
            ],
            [
              -122.48417,
              37.76903
            ],
            [
              -122.48395,
              37.76907
            ],
            [
              -122.48375,
              37.76913
            ],
            [
              -122.48357,
              37.76921
            ],
            [
              -122.48351,
              37.76925
            ],
            [
              -122.48344,
              37.76929
            ],
            [
              -122.48333,
              37.76936
            ],
            [
              -122.48326,
              37.7694
            ],
            [
              -122.48314,
              37.76942
            ],
            [
              -122.48304,
              37.76944
            ],
            [
              -122.48289,
              37.76945
            ],
            [
              -122.48277,
              37.76947
            ],
            [
              -122.48267,
              37.76949
            ],
            [
              -122.48259,
              37.76952
            ],
            [
              -122.48246,
              37.76958
            ],
            [
              -122.48228,
              37.76965
            ],
            [
              -122.48211,
              37.76972
            ],
            [
              -122.48193,
              37.76982
            ],
            [
              -122.48177,
              37.7699
            ],
            [
              -122.48183,
              37.76991
            ],
            [
              -122.48211,
              37.76991
            ],
            [
              -122.48239,
              37.76993
            ],
            [
              -122.48281,
              37.77
            ],
            [
              -122.4831,
              37.77006
            ],
            [
              -122.48338,
              37.77009
            ],
            [
              -122.48362,
              37.7701
            ],
            [
              -122.48383,
              37.77007
            ],
            [
              -122.48421,
              37.76998
            ],
            [
              -122.48452,
              37.7699
            ],
            [
              -122.4847,
              37.76988
            ],
            [
              -122.48486,
              37.76988
            ],
            [
              -122.48506,
              37.76991
            ],
            [
              -122.48524,
              37.76997
            ],
            [
              -122.48531,
              37.76986
            ],
            [
              -122.48541,
              37.76989
            ],
            [
              -122.48561,
              37.76978
            ],
            [
              -122.48583,
              37.76985
            ],
            [
              -122.48593,
              37.76992
            ],
            [
              -122.48611,
              37.76992
            ],
            [
              -122.48633,
              37.76981
            ],
            [
              -122.48662,
              37.76953
            ],
            [
              -122.48682,
              37.76944
            ],
            [
              -122.48698,
              37.76934
            ],
            [
              -122.48751,
              37.76928
            ],
            [
              -122.48767,
              37.7692
            ],
            [
              -122.48769,
              37.7691
            ],
            [
              -122.48778,
              37.76909
            ],
            [
              -122.48805,
              37.76898
            ],
            [
              -122.48814,
              37.76891
            ],
            [
              -122.48825,
              37.76881
            ],
            [
              -122.48866,
              37.76867
            ],
            [
              -122.48896,
              37.76861
            ],
            [
              -122.48933,
              37.76851
            ]
          ]
        ]
      }
    },
    {
      "type": "Feature",
      "properties": {
        "id": "polo-field",
        "name": "Polo Field",
        "fill": "#f7b32b",
        "ink": "#3d2703"
      },
      "geometry": {
        "type": "Polygon",
        "coordinates": [
          [
            [
              -122.49078,
              37.76771
            ],
            [
              -122.4907,
              37.76774
            ],
            [
              -122.49061,
              37.76777
            ],
            [
              -122.49051,
              37.76781
            ],
            [
              -122.49042,
              37.76786
            ],
            [
              -122.49033,
              37.76791
            ],
            [
              -122.49025,
              37.76797
            ],
            [
              -122.49018,
              37.76804
            ],
            [
              -122.49011,
              37.76812
            ],
            [
              -122.49006,
              37.7682
            ],
            [
              -122.49001,
              37.76828
            ],
            [
              -122.48998,
              37.76836
            ],
            [
              -122.48995,
              37.76844
            ],
            [
              -122.48993,
              37.76853
            ],
            [
              -122.48992,
              37.76863
            ],
            [
              -122.48993,
              37.76873
            ],
            [
              -122.48994,
              37.76881
            ],
            [
              -122.48996,
              37.7689
            ],
            [
              -122.49,
              37.76899
            ],
            [
              -122.49005,
              37.7691
            ],
            [
              -122.49012,
              37.7692
            ],
            [
              -122.49022,
              37.7693
            ],
            [
              -122.49032,
              37.76938
            ],
            [
              -122.49044,
              37.76945
            ],
            [
              -122.49057,
              37.76952
            ],
            [
              -122.4907,
              37.76957
            ],
            [
              -122.49086,
              37.76961
            ],
            [
              -122.491,
              37.76963
            ],
            [
              -122.49115,
              37.76964
            ],
            [
              -122.49129,
              37.76963
            ],
            [
              -122.49143,
              37.76961
            ],
            [
              -122.49157,
              37.76959
            ],
            [
              -122.49169,
              37.76956
            ],
            [
              -122.49463,
              37.76868
            ],
            [
              -122.4947,
              37.76866
            ],
            [
              -122.4948,
              37.76863
            ],
            [
              -122.49489,
              37.76859
            ],
            [
              -122.49499,
              37.76855
            ],
            [
              -122.49509,
              37.7685
            ],
            [
              -122.49518,
              37.76844
            ],
            [
              -122.49526,
              37.76837
            ],
            [
              -122.49533,
              37.76831
            ],
            [
              -122.4954,
              37.76823
            ],
            [
              -122.49546,
              37.76815
            ],
            [
              -122.49551,
              37.76807
            ],
            [
              -122.49555,
              37.76798
            ],
            [
              -122.49558,
              37.76789
            ],
            [
              -122.49559,
              37.7678
            ],
            [
              -122.49559,
              37.76771
            ],
            [
              -122.49559,
              37.76762
            ],
            [
              -122.49557,
              37.76753
            ],
            [
              -122.49555,
              37.76743
            ],
            [
              -122.49551,
              37.76734
            ],
            [
              -122.49546,
              37.76725
            ],
            [
              -122.4954,
              37.76716
            ],
            [
              -122.49532,
              37.76709
            ],
            [
              -122.49524,
              37.76702
            ],
            [
              -122.49515,
              37.76695
            ],
            [
              -122.49505,
              37.7669
            ],
            [
              -122.49496,
              37.76685
            ],
            [
              -122.49484,
              37.7668
            ],
            [
              -122.49472,
              37.76677
            ],
            [
              -122.49459,
              37.76675
            ],
            [
              -122.49446,
              37.76674
            ],
            [
              -122.49433,
              37.76674
            ],
            [
              -122.49418,
              37.76674
            ],
            [
              -122.49404,
              37.76676
            ],
            [
              -122.49391,
              37.76679
            ],
            [
              -122.49078,
              37.76771
            ]
          ]
        ]
      }
    },
    {
      "type": "Feature",
      "properties": {
        "id": "mclaren-pass",
        "name": "McLaren Pass",
        "fill": "#2f6b46",
        "ink": "#eefaf1",
        "authored": true
      },
      "geometry": {
        "type": "Polygon",
        "coordinates": [
          [
            [
              -122.4893,
              37.77015
            ],
            [
              -122.486,
              37.7708
            ],
            [
              -122.4848,
              37.7699
            ],
            [
              -122.4876,
              37.7693
            ],
            [
              -122.4893,
              37.77015
            ]
          ]
        ]
      }
    }
  ]
}
